{
  "type": "FeatureCollection",
  "features": [
    {
      "type": "Feature",
      "properties": {
        "norad_id": 35902,
        "name": "COSMOS 2251 DEB",
        "group": "cosmos-2251-debris",
        "lat": 48.40217574693064,
        "lon": 43.11781723622718,
        "alt_km": 845.4388151061503,
        "timestamp": "2025-12-08T15:42:50.193003+00:00",
        "meta_object_name": "COSMOS 2251 DEB",
        "meta_object_id": "1993-036AUR",
        "meta_epoch": "2025-12-07T23:58:19.658496",
        "meta_mean_motion": 14.26862668,
        "meta_eccentricity": 0.01019224,
        "meta_inclination": 73.9832,
        "meta_ra_of_asc_node": 243.186,
        "meta_arg_of_pericenter": 358.8404,
        "meta_mean_anomaly": 1.2491,
        "meta_ephemeris_type": 0,
        "meta_classification_type": "U",
        "meta_norad_cat_id": 35902,
        "meta_element_set_no": 999,
        "meta_rev_at_epoch": 61062,
        "meta_bstar": 0.0016367935,
        "meta_mean_motion_dot": 4.172e-05,
        "meta_mean_motion_ddot": 0,
        "tle_line1": "1 35902U 93036AUR 25341.99883864  .00004172  00000+0  16368-2 0  9999",
        "tle_line2": "2 35902  73.9832 243.1860 0101922 358.8404   1.2491 14.26862668610625"
      },
      "geometry": {
        "type": "Point",
        "coordinates": [
          43.11781723622718,
          48.40217574693064
        ]
      }
    },
    {
      "type": "Feature",
      "properties": {
        "norad_id": 35905,
        "name": "COSMOS 2251 DEB",
        "group": "cosmos-2251-debris",
        "lat": 70.0982938643518,
        "lon": -13.167672349605958,
        "alt_km": 623.0679348609447,
        "timestamp": "2025-12-08T15:42:50.193014+00:00",
        "meta_object_name": "COSMOS 2251 DEB",
        "meta_object_id": "1993-036AUU",
        "meta_epoch": "2025-12-07T08:49:24.431232",
        "meta_mean_motion": 14.98911662,
        "meta_eccentricity": 0.00909894,
        "meta_inclination": 74.0317,
        "meta_ra_of_asc_node": 221.7171,
        "meta_arg_of_pericenter": 303.0017,
        "meta_mean_anomaly": 56.2448,
        "meta_ephemeris_type": 0,
        "meta_classification_type": "U",
        "meta_norad_cat_id": 35905,
        "meta_element_set_no": 999,
        "meta_rev_at_epoch": 88502,
        "meta_bstar": 0.00087159571,
        "meta_mean_motion_dot": 0.00011465,
        "meta_mean_motion_ddot": 0,
        "tle_line1": "1 35905U 93036AUU 25341.36764388  .00011465  00000+0  87160-3 0  9994",
        "tle_line2": "2 35905  74.0317 221.7171 0090989 303.0017  56.2448 14.98911662885025"
      },
      "geometry": {
        "type": "Point",
        "coordinates": [
          -13.167672349605958,
          70.0982938643518
        ]
      }
    },
    {
      "type": "Feature",
      "properties": {
        "norad_id": 35959,
        "name": "COSMOS 2251 DEB",
        "group": "cosmos-2251-debris",
        "lat": 67.19764727733468,
        "lon": 96.61615905408928,
        "alt_km": 764.6000569744174,
        "timestamp": "2025-12-08T15:42:50.193024+00:00",
        "meta_object_name": "COSMOS 2251 DEB",
        "meta_object_id": "1993-036AUZ",
        "meta_epoch": "2025-12-08T05:10:34.514400",
        "meta_mean_motion": 14.34131118,
        "meta_eccentricity": 0.00213794,
        "meta_inclination": 74.0321,
        "meta_ra_of_asc_node": 320.3461,
        "meta_arg_of_pericenter": 42.2053,
        "meta_mean_anomaly": 318.074,
        "meta_ephemeris_type": 0,
        "meta_classification_type": "U",
        "meta_norad_cat_id": 35959,
        "meta_element_set_no": 999,
        "meta_rev_at_epoch": 84863,
        "meta_bstar": 0.00023897731,
        "meta_mean_motion_dot": 6.45e-06,
        "meta_mean_motion_ddot": 0,
        "tle_line1": "1 35959U 93036AUZ 25342.21567725  .00000645  00000+0  23898-3 0  9990",
        "tle_line2": "2 35959  74.0321 320.3461 0021379  42.2053 318.0740 14.34131118848636"
      },
      "geometry": {
        "type": "Point",
        "coordinates": [
          96.61615905408928,
          67.19764727733468
        ]
      }
    },
    {
      "type": "Feature",
      "properties": {
        "norad_id": 35961,
        "name": "COSMOS 2251 DEB",
        "group": "cosmos-2251-debris",
        "lat": 72.04998042375567,
        "lon": -31.51173226051736,
        "alt_km": 772.7351510436529,
        "timestamp": "2025-12-08T15:42:50.193035+00:00",
        "meta_object_name": "COSMOS 2251 DEB",
        "meta_object_id": "1993-036AVB",
        "meta_epoch": "2025-11-29T09:08:47.173056",
        "meta_mean_motion": 14.05319505,
        "meta_eccentricity": 0.01924432,
        "meta_inclination": 73.9254,
        "meta_ra_of_asc_node": 227.671,
        "meta_arg_of_pericenter": 163.9834,
        "meta_mean_anomaly": 196.7506,
        "meta_ephemeris_type": 0,
        "meta_classification_type": "U",
        "meta_norad_cat_id": 35961,
        "meta_element_set_no": 999,
        "meta_rev_at_epoch": 62494,
        "meta_bstar": 0.00062484461,
        "meta_mean_motion_dot": 1.171e-05,
        "meta_mean_motion_ddot": 0,
        "tle_line1": "1 35961U 93036AVB 25333.38110154  .00001171  00000+0  62484-3 0  9990",
        "tle_line2": "2 35961  73.9254 227.6710 0192443 163.9834 196.7506 14.05319505624940"
      },
      "geometry": {
        "type": "Point",
        "coordinates": [
          -31.51173226051736,
          72.04998042375567
        ]
      }
    },
    {
      "type": "Feature",
      "properties": {
        "norad_id": 35979,
        "name": "COSMOS 2251 DEB",
        "group": "cosmos-2251-debris",
        "lat": 49.118211628710114,
        "lon": -94.28072885956944,
        "alt_km": 606.8641912974826,
        "timestamp": "2025-12-08T15:42:50.193046+00:00",
        "meta_object_name": "COSMOS 2251 DEB",
        "meta_object_id": "1993-036AVV",
        "meta_epoch": "2025-12-07T00:28:15.848832",
        "meta_mean_motion": 14.74528809,
        "meta_eccentricity": 0.00587537,
        "meta_inclination": 74.0106,
        "meta_ra_of_asc_node": 249.5726,
        "meta_arg_of_pericenter": 23.061,
        "meta_mean_anomaly": 352.2989,
        "meta_ephemeris_type": 0,
        "meta_classification_type": "U",
        "meta_norad_cat_id": 35979,
        "meta_element_set_no": 999,
        "meta_rev_at_epoch": 88549,
        "meta_bstar": 0.0016160682,
        "meta_mean_motion_dot": 0.00011041,
        "meta_mean_motion_ddot": 0,
        "tle_line1": "1 35979U 93036AVV 25341.01962788  .00011041  00000+0  16161-2 0  9993",
        "tle_line2": "2 35979  74.0106 249.5726 0058753  23.0610 352.2989 14.74528809885498"
      },
      "geometry": {
        "type": "Point",
        "coordinates": [
          -94.28072885956944,
          49.118211628710114
        ]
      }
    },
    {
      "type": "Feature",
      "properties": {
        "norad_id": 35980,
        "name": "COSMOS 2251 DEB",
        "group": "cosmos-2251-debris",
        "lat": 24.33175972108957,
        "lon": -56.968874737593595,
        "alt_km": 708.0128912627761,
        "timestamp": "2025-12-08T15:42:50.193056+00:00",
        "meta_object_name": "COSMOS 2251 DEB",
        "meta_object_id": "1993-036AVW",
        "meta_epoch": "2025-12-02T19:08:08.015136",
        "meta_mean_motion": 14.59062146,
        "meta_eccentricity": 0.00537712,
        "meta_inclination": 73.91,
        "meta_ra_of_asc_node": 141.7735,
        "meta_arg_of_pericenter": 277.5645,
        "meta_mean_anomaly": 81.9413,
        "meta_ephemeris_type": 0,
        "meta_classification_type": "U",
        "meta_norad_cat_id": 35980,
        "meta_element_set_no": 999,
        "meta_rev_at_epoch": 61341,
        "meta_bstar": 0.002036555,
        "meta_mean_motion_dot": 9.752e-05,
        "meta_mean_motion_ddot": 0,
        "tle_line1": "1 35980U 93036AVW 25336.79731499  .00009752  00000+0  20366-2 0  9995",
        "tle_line2": "2 35980  73.9100 141.7735 0053771 277.5645  81.9413 14.59062146613413"
      },
      "geometry": {
        "type": "Point",
        "coordinates": [
          -56.968874737593595,
          24.33175972108957
        ]
      }
    },
    {
      "type": "Feature",
      "properties": {
        "norad_id": 35982,
        "name": "COSMOS 2251 DEB",
        "group": "cosmos-2251-debris",
        "lat": 26.656162778408167,
        "lon": 2.9984711053853133,
        "alt_km": 645.6685303652848,
        "timestamp": "2025-12-08T15:42:50.193066+00:00",
        "meta_object_name": "COSMOS 2251 DEB",
        "meta_object_id": "1993-036AVY",
        "meta_epoch": "2025-12-08T07:22:51.529440",
        "meta_mean_motion": 14.62712829,
        "meta_eccentricity": 0.00640419,
        "meta_inclination": 74.0584,
        "meta_ra_of_asc_node": 355.4132,
        "meta_arg_of_pericenter": 63.0771,
        "meta_mean_anomaly": 297.692,
        "meta_ephemeris_type": 0,
        "meta_classification_type": "U",
        "meta_norad_cat_id": 35982,
        "meta_element_set_no": 999,
        "meta_rev_at_epoch": 86101,
        "meta_bstar": 0.0008046979,
        "meta_mean_motion_dot": 4.193e-05,
        "meta_mean_motion_ddot": 0,
        "tle_line1": "1 35982U 93036AVY 25342.30754085  .00004193  00000+0  80470-3 0  9994",
        "tle_line2": "2 35982  74.0584 355.4132 0064041  63.0771 297.6920 14.62712829861012"
      },
      "geometry": {
        "type": "Point",
        "coordinates": [
          2.9984711053853133,
          26.656162778408167
        ]
      }
    }
  ]
}